$$SOE
2461302.500000000, A.D. 2026-Sep-19 00:00:00.0000, 1.824930282789525E+08, 1.627629202789263E+08, -9.794667967481554E+07,
2461309.500000000, A.D. 2026-Sep-26 00:00:00.0000, 1.720319801623228E+08, 1.722593688170824E+08, -9.967014251139377E+07,
2461316.500000000, A.D. 2026-Oct-03 00:00:00.0000, 1.611123204692366E+08, 1.812965701636026E+08, -1.011278885965655E+08,
2461323.500000000, A.D. 2026-Oct-10 00:00:00.0000, 1.497617547131487E+08, 1.898488603202842E+08, -1.023151537090674E+08,
2461330.500000000, A.D. 2026-Oct-17 00:00:00.0000, 1.380096505843600E+08, 1.978921203798901E+08, -1.032280900746170E+08,
2461337.500000000, A.D. 2026-Oct-24 00:00:00.0000, 1.258869016168178E+08, 2.054039136849178E+08, -1.038637940746032E+08,
2461344.500000000, A.D. 2026-Oct-31 00:00:00.0000, 1.134257771954931E+08, 2.123636107945617E+08, -1.042203267003992E+08,
2461351.500000000, A.D. 2026-Nov-07 00:00:00.0000, 1.006597609513690E+08, 2.187525006540256E+08, -1.042967264517119E+08,
2461358.500000000, A.D. 2026-Nov-14 00:00:00.0000, 8.762337969275363E+07, 2.245538873997897E+08, -1.040930144302542E+08,
2461365.500000000, A.D. 2026-Nov-21 00:00:00.0000, 7.435202319885024E+07, 2.297531722780627E+08, -1.036101913318749E+08,
2461372.500000000, A.D. 2026-Nov-28 00:00:00.0000, 6.088175612117261E+07, 2.343379167595874E+08, -1.028502265342461E+08,
2461379.500000000, A.D. 2026-Dec-05 00:00:00.0000, 4.724912792832542E+07, 2.382978856352983E+08, -1.018160398769682E+08,
2461386.500000000, A.D. 2026-Dec-12 00:00:00.0000, 3.349098341704946E+07, 2.416250729603945E+08, -1.005114762511807E+08,
2461393.500000000, A.D. 2026-Dec-19 00:00:00.0000, 1.964427422174320E+07, 2.443137109205183E+08, -9.894127329430021E+07,
2461400.500000000, A.D. 2026-Dec-26 00:00:00.0000, 5.745873415253937E+06, 2.463602611325215E+08, -9.711102282551520E+07,
2461407.500000000, A.D. 2027-Jan-02 00:00:00.0000, -8.167604420335168E+06, 2.477633888569049E+08, -9.502712672407171E+07,
2461414.500000000, A.D. 2027-Jan-09 00:00:00.0000, -2.205997561642079E+07, 2.485239210690718E+08, -9.269674798286454E+07,
2461421.500000000, A.D. 2027-Jan-16 00:00:00.0000, -3.589565059996197E+07, 2.486447895526166E+08, -9.012775771088353E+07,
2461428.500000000, A.D. 2027-Jan-23 00:00:00.0000, -4.963978633462370E+07, 2.481309603197536E+08, -8.732867889419600E+07,
2461435.500000000, A.D. 2027-Jan-30 00:00:00.0000, -6.325842663808674E+07, 2.469893508048030E+08, -8.430862774997309E+07,
2461442.500000000, A.D. 2027-Feb-06 00:00:00.0000, -7.671862902367876E+07, 2.452287367704596E+08, -8.107725348876077E+07,
2461449.500000000, A.D. 2027-Feb-13 00:00:00.0000, -8.998857787015100E+07, 2.428596518129227E+08, -7.764467712211585E+07,
2461456.500000000, A.D. 2027-Feb-20 00:00:00.0000, -1.030376858814228E+08, 2.398942803677933E+08, -7.402142990112829E+07,
2461463.500000000, A.D. 2027-Feb-27 00:00:00.0000, -1.158366822775822E+08, 2.363463426601837E+08, -7.021839244208017E+07,
2461470.500000000, A.D. 2027-Mar-06 00:00:00.0000, -1.283576847922517E+08, 2.322309751218632E+08, -6.624673526182293E+07,
2461477.500000000, A.D. 2027-Mar-13 00:00:00.0000, -1.405742573768035E+08, 2.275646098728782E+08, -6.211786096222632E+07,
2461484.500000000, A.D. 2027-Mar-20 00:00:00.0000, -1.524614552031531E+08, 2.223648538712120E+08, -5.784334849835800E+07,
2461491.500000000, A.D. 2027-Mar-27 00:00:00.0000, -1.639958573816812E+08, 2.166503684880282E+08, -5.343489998191746E+07,
2461498.500000000, A.D. 2027-Apr-03 00:00:00.0000, -1.751555879372849E+08, 2.104407506349629E+08, -4.890429035807048E+07,
2461505.500000000, A.D. 2027-Apr-10 00:00:00.0000, -1.859203258231989E+08, 2.037564165010902E+08, -4.426332020363797E+07,
2461512.500000000, A.D. 2027-Apr-17 00:00:00.0000, -1.962713048588583E+08, 1.966184887755823E+08, -3.952377182516442E+07,
2461519.500000000, A.D. 2027-Apr-24 00:00:00.0000, -2.061913044634000E+08, 1.890486880401933E+08, -3.469736878028552E+07,
2461526.500000000, A.D. 2027-May-01 00:00:00.0000, -2.156646318556488E+08, 1.810692289652249E+08, -2.979573890014172E+07,
2461533.500000000, A.D. 2027-May-08 00:00:00.0000, -2.246770963839781E+08, 1.727027225287665E+08, -2.483038078039098E+07,
2461540.500000000, A.D. 2027-May-15 00:00:00.0000, -2.332159784411426E+08, 1.639720855598564E+08, -1.981263348205527E+07,
2461547.500000000, A.D. 2027-May-22 00:00:00.0000, -2.412699954601169E+08, 1.549004552554308E+08, -1.475364943030628E+07,
2461554.500000000, A.D. 2027-May-29 00:00:00.0000, -2.488292625085721E+08, 1.455111073428729E+08, -9.664370822235137E+06,
2461561.500000000, A.D. 2027-Jun-05 00:00:00.0000, -2.558852474121897E+08, 1.358273810476237E+08, -4.555509223041363E+06,
2461568.500000000, A.D. 2027-Jun-12 00:00:00.0000, -2.624307231970953E+08, 1.258726112511411E+08, 5.624720270761251E+05,
2461575.500000000, A.D. 2027-Jun-19 00:00:00.0000, -2.684597189022722E+08, 1.156700668073117E+08, 5.679372721881554E+06,
2461582.500000000, A.D. 2027-Jun-26 00:00:00.0000, -2.739674691262428E+08, 1.052428945975389E+08, 1.078526815316829E+07,
2461589.500000000, A.D. 2027-Jul-03 00:00:00.0000, -2.789503627550308E+08, 9.461406912277563E+07, 1.587051911050653E+07,
2461596.500000000, A.D. 2027-Jul-10 00:00:00.0000, -2.834058913521050E+08, 8.380634739475040E+07, 2.092577970743483E+07,
2461603.500000000, A.D. 2027-Jul-17 00:00:00.0000, -2.873325976302366E+08, 7.284222881406511E+07, 2.594200321987375E+07,
2461610.500000000, A.D. 2027-Jul-24 00:00:00.0000, -2.907300242458341E+08, 6.174391967923573E+07, 3.091044610612056E+07,
2461617.500000000, A.D. 2027-Jul-31 00:00:00.0000, -2.935986628449578E+08, 5.053330225580834E+07, 3.582267037330113E+07,
2461624.500000000, A.D. 2027-Aug-07 00:00:00.0000, -2.959399038499576E+08, 3.923190924267891E+07, 4.067054457901417E+07,
2461631.500000000, A.D. 2027-Aug-14 00:00:00.0000, -2.977559895319768E+08, 2.786090306399421E+07, 4.544624382695571E+07,
2461638.500000000, A.D. 2027-Aug-21 00:00:00.0000, -2.990499699599606E+08, 1.644105631004066E+07, 5.014224858693831E+07,
2461645.500000000, A.D. 2027-Aug-28 00:00:00.0000, -2.998256585578113E+08, 4.992734234238623E+06, 5.475134227729166E+07,
2461652.500000000, A.D. 2027-Sep-04 00:00:00.0000, -3.000875885577219E+08, -6.464118478581902E+06, 5.926660806233706E+07,
2461659.500000000, A.D. 2027-Sep-11 00:00:00.0000, -2.998409718180367E+08, -1.790998761902979E+07, 6.368142506283738E+07,
2461666.500000000, A.D. 2027-Sep-18 00:00:00.0000, -2.990916599228531E+08, -2.932579696086727E+07, 6.798946402507398E+07,
2461673.500000000, A.D. 2027-Sep-25 00:00:00.0000, -2.978461073623146E+08, -4.069291371607672E+07, 7.218468252132010E+07,
2461680.500000000, A.D. 2027-Oct-02 00:00:00.0000, -2.961113367374982E+08, -5.199315217104953E+07, 7.626131977282524E+07,
2461687.500000000, A.D. 2027-Oct-09 00:00:00.0000, -2.938949059809344E+08, -6.320877574842335E+07, 8.021389118790680E+07,
2461694.500000000, A.D. 2027-Oct-16 00:00:00.0000, -2.912048775262832E+08, -7.432249776242694E+07, 8.403718269419830E+07,
2461701.500000000, A.D. 2027-Oct-23 00:00:00.0000, -2.880497891409474E+08, -8.531748106621781E+07, 8.772624491863737E+07,
2461708.500000000, A.D. 2027-Oct-30 00:00:00.0000, -2.844386260016143E+08, -9.617733616099471E+07, 9.127638729636410E+07,
2461715.500000000, A.D. 2027-Nov-06 00:00:00.0000, -2.803807951187937E+08, -1.068861168091561E+08, 9.468317236305414E+07,
2461722.500000000, A.D. 2027-Nov-13 00:00:00.0000, -2.758861040336333E+08, -1.174283153899337E+08, 9.794241029235992E+07,
2461729.500000000, A.D. 2027-Nov-20 00:00:00.0000, -2.709647408241245E+08, -1.277888603350383E+08, 1.010501532805444E+08,
2461736.500000000, A.D. 2027-Nov-27 00:00:00.0000, -2.656272537386470E+08, -1.379531128145134E+08, 1.040026899146428E+08,
2461743.500000000, A.D. 2027-Dec-04 00:00:00.0000, -2.598845324068296E+08, -1.479068618788438E+08, 1.067965398178905E+08,
2461750.500000000, A.D. 2027-Dec-11 00:00:00.0000, -2.537477911008071E+08, -1.576363191353910E+08, 1.094284485711265E+08,
2461757.500000000, A.D. 2027-Dec-18 00:00:00.0000, -2.472285536977496E+08, -1.671281134074239E+08, 1.118953828836094E+08,
2461764.500000000, A.D. 2027-Dec-25 00:00:00.0000, -2.403386401204448E+08, -1.763692854765370E+08, 1.141945260249485E+08,
2461771.500000000, A.D. 2028-Jan-01 00:00:00.0000, -2.330901541421838E+08, -1.853472829814284E+08, 1.163232735375524E+08,
$$EOE